{
	"0ad474d6e3bc4a295c8a422e": {
		"city": "Grevenmacher",
		"street": "Route de Machtum",
		"postcode": "6753"
	},
	"0c3e4cf049aab364f16345cf": {
		"city": "Echternach",
		"street": "Route de Diekirch",
		"postcode": "6430"
	},
	"36e84c54cc53c8b9ed3aac4b": {
		"city": "Mertert",
		"street": "Rue du Parc",
		"postcode": "6684"
	},
	"392368ec37de659cb20c3104": {
		"city": "Remich",
		"street": "Esplanade",
		"postcode": "5533"
	},
	"3f13a5d33190ad1f904e239b": {
		"city": "Dillingen",
		"street": "Rue de la Sûre",
		"postcode": "6350"
	},
	"4766a671f4dfa87b15419575": {
		"city": "Echternach",
		"street": "Rue du Pont",
		"postcode": "6471"
	},
	"59e3350c8758c14540010a15": {
		"city": "Stadtbredimus",
		"street": "Wäistrooss",
		"postcode": "5450"
	},
	"82500335a3b96838199401f5": {
		"city": "Moersdorf",
		"street": "Fëschergaass",
		"postcode": "6691"
	},
	"83c4771f6b4d1054567fd383": {
		"city": "Schengen",
		"street": "Wäistrooss",
		"postcode": "5445"
	},
	"8f69c4e11923990a636b8ef9": {
		"city": "Mertert",
		"street": "Rue Basse",
		"postcode": "6670"
	},
	"910953ef93f5dfa07c6e7763": {
		"city": "Wormeldange",
		"street": "Rue Principale",
		"postcode": "5480"
	},
	"996bb01425ffc8f258b62145": {
		"city": "Echternach",
		"street": "Rue de la Gare",
		"postcode": "6440"
	},
	"cf9014ab88cc5f06bada87af": {
		"city": "Grevenmacher",
		"street": "Route du Vin",
		"postcode": "6794"
	},
	"dd0b297683525b860e8413b0": {
		"city": "Moersdorf",
		"street": "Op der Fär",
		"postcode": "6690"
	},
	"e1de30691ccaac248987b761": {
		"city": "Born",
		"street": "Haaptstrooss",
		"postcode": "6661"
	}
}